NORAD_CAT_ID,OBJECT_NAME,OBJECT_TYPE,EPOCH,MEAN_MOTION,ECCENTRICITY,INCLINATION,RA_OF_ASC_NODE,ARG_OF_PERICENTER,MEAN_ANOMALY,BSTAR,MEAN_MOTION_DOT,MEAN_MOTION_DDOT,TLE_LINE0,TLE_LINE1,TLE_LINE2,SEMIMAJOR_AXIS,PERIOD,APOGEE,PERIGEE,DECAYED
53870.0,STARLINK-4732,PAYLOAD,2024-08-10 23:59:31,15.08853593,0.0001887,53.2176,328.4262,79.5235,280.597,0.00031007,4.652e-05,0.0,0 STARLINK-4732,1 53870U 22114BE  24223.99966576  .00004652  00000-0  31007-3 0  9994,2 53870  53.2176 328.4262 0001887  79.5235 280.5970 15.08853593105948,6917.839,95.437,541.009,538.398,0.0
53870.0,STARLINK-4732,PAYLOAD,2024-08-11 06:21:03,15.08855209,0.0001769,53.2175,327.2385,83.0693,277.0501,0.00030869,4.63e-05,0.0,0 STARLINK-4732,1 53870U 22114BE  24224.26462068  .00004630  00000-0  30869-3 0  9993,2 53870  53.2175 327.2385 0001769  83.0693 277.0501 15.08855209106529,6917.834,95.437,540.923,538.475,0.0
53870.0,STARLINK-4732,PAYLOAD,2024-08-11 23:50:18,15.08831317,4.6e-05,53.2166,323.9641,52.8993,307.2041,0.00033933,5.116e-05,0.0,0 STARLINK-4732,1 53870U 22114BE  24224.99327169  .00005116  00000-0  33933-3 0  9990,2 53870  53.2166 323.9641 0000460  52.8993 307.2041 15.08831317106092,6917.907,95.438,540.09,539.454,0.0
53870.0,STARLINK-4732,PAYLOAD,2024-08-12 06:11:52,15.08788459,0.0002274,53.2179,322.7784,84.6364,275.4887,-0.00095601,-0.0001545,0.0,0 STARLINK-4732,1 53870U 22114BE  24225.25825144 -.00015450  00000-0 -95601-3 0  9990,2 53870  53.2179 322.7784 0002274  84.6364 275.4887 15.08788459106138,6918.038,95.441,541.476,538.33,0.0
53870.0,STARLINK-4732,PAYLOAD,2024-08-13 12:24:13,15.08843096,0.0001382,53.2203,317.1263,123.3164,236.796,0.00084238,0.00013145,0.0,0 STARLINK-4732,1 53870U 22114BE  24226.51681818  .00013145  00000-0  84238-3 0  9999,2 53870  53.2203 317.1263 0001382 123.3164 236.7960 15.08843096106326,6917.871,95.437,540.692,538.78,0.0
53870.0,STARLINK-4732,PAYLOAD,2024-08-13 15:34:59,15.0884742,8.51e-05,53.2214,316.5318,227.0079,133.0842,0.00060523,9.359e-05,0.0,0 STARLINK-4732,1 53870U 22114BE  24226.64929693  .00009359  00000-0  60523-3 0  9992,2 53870  53.2214 316.5318 0000851 227.0079 133.0842 15.08847420106883,6917.858,95.437,540.311,539.134,0.0
53870.0,STARLINK-4732,PAYLOAD,2024-08-13 23:31:55,15.08819177,4.57e-05,53.2149,315.045,159.0335,201.0676,0.00044448,6.789e-05,0.0,0 STARLINK-4732,1 53870U 22114BE  24226.98050465  .00006789  00000-0  44448-3 0  9993,2 53870  53.2149 315.0450 0000457 159.0335 201.0676 15.08819177106397,6917.944,95.439,540.125,539.493,0.0
53870.0,STARLINK-4732,PAYLOAD,2024-08-14 12:15:00,15.08857064,0.0001699,53.2162,312.6673,99.116,261.0024,0.0012399,0.00019509,0.0,0 STARLINK-4732,1 53870U 22114BE  24227.51042321  .00019509  00000-0  12399-2 0  9998,2 53870  53.2162 312.6673 0001699  99.1160 261.0024 15.08857064106470,6917.828,95.436,540.869,538.518,0.0
53870.0,STARLINK-4732,PAYLOAD,2024-08-14 23:22:41,15.08859051,9.37e-05,53.217,310.584,88.8096,271.3004,0.00059278,9.164e-05,0.0,0 STARLINK-4732,1 53870U 22114BE  24227.97409685  .00009164  00000-0  59278-3 0  9992,2 53870  53.2170 310.5840 0000937  88.8096 271.3004 15.08859051106547,6917.822,95.436,540.335,539.039,0.0
53870.0,STARLINK-4732,PAYLOAD,2024-08-15 13:41:09,15.08857068,0.0001248,53.218,307.907,98.4053,261.7081,0.00023749,3.496e-05,0.0,0 STARLINK-4732,1 53870U 22114BE  24228.57025173  .00003496  00000-0  23749-3 0  9991,2 53870  53.2180 307.9070 0001248  98.4053 261.7081 15.08857068107173,6917.828,95.436,540.557,538.83,0.0
53870.0,STARLINK-4732,PAYLOAD,2024-08-16 10:21:09,15.08855276,0.0001478,53.2169,304.0406,104.4359,255.6798,6.0976e-05,6.83e-06,0.0,0 STARLINK-4732,1 53870U 22114BE  24229.43136486  .00000683  00000-0  60976-4 0  9996,2 53870  53.2169 304.0406 0001478 104.4359 255.6798 15.08855276106763,6917.834,95.437,540.721,538.676,0.0
53870.0,STARLINK-4732,PAYLOAD,2024-08-17 05:25:47,15.08842621,0.000136,53.2154,300.4727,89.4313,270.6835,5.715e-06,-1.97e-06,0.0,0 STARLINK-4732,1 53870U 22114BE  24230.22624805 -.00000197  00000-0  57150-5 0  9994,2 53870  53.2154 300.4727 0001360  89.4313 270.6835 15.08842621106887,6917.872,95.437,540.678,538.797,0.0
53870.0,STARLINK-4732,PAYLOAD,2024-08-17 08:36:34,15.08842547,0.0001327,53.2154,299.8792,84.969,275.1454,7.9645e-06,-1.61e-06,0.0,0 STARLINK-4732,1 53870U 22114BE  24230.35872777 -.00000161  00000-0  79645-5 0  9995,2 53870  53.2154 299.8792 0001327  84.9690 275.1454 15.08842547107448,6917.873,95.437,540.656,538.82,0.0
53870.0,STARLINK-4732,PAYLOAD,2024-08-18 10:02:43,15.08845904,0.0001473,53.2169,295.1227,98.8859,261.23,0.00012906,1.767e-05,0.0,0 STARLINK-4732,1 53870U 22114BE  24231.41856323  .00001767  00000-0  12906-3 0  9999,2 53870  53.2169 295.1227 0001473  98.8859 261.2300 15.08845904107063,6917.862,95.437,540.746,538.708,0.0
53870.0,STARLINK-4732,PAYLOAD,2024-08-19 13:04:18,15.08832937,0.0001294,53.2166,290.0679,86.0229,274.0911,4.0665e-06,-2.23e-06,0.0,0 STARLINK-4732,1 53870U 22114BE  24232.54465513 -.00000223  00000-0  40665-5 0  9993,2 53870  53.2166 290.0679 0001294  86.0229 274.0911 15.08832937107237,6917.902,95.438,540.662,538.872,0.0
53870.0,STARLINK-4732,PAYLOAD,2024-08-20 11:19:41,15.08830261,0.0001484,53.2165,285.9065,80.8073,279.3087,0.00033622,5.066e-05,0.0,0 STARLINK-4732,1 53870U 22114BE  24233.47200904  .00005066  00000-0  33622-3 0  9999,2 53870  53.2165 285.9065 0001484  80.8073 279.3087 15.08830261107373,6917.91,95.438,540.802,538.749,0.0
53870.0,STARLINK-4732,PAYLOAD,2024-08-21 09:35:05,15.08835984,0.0001388,53.2163,281.7413,78.5893,281.5255,0.00011151,1.487e-05,0.0,0 STARLINK-4732,1 53870U 22114BE  24234.39937291  .00001487  00000-0  11151-3 0  9993,2 53870  53.2163 281.7413 0001388  78.5893 281.5255 15.08835984108054,6917.893,95.438,540.718,538.797,0.0
53870.0,STARLINK-4732,PAYLOAD,2024-08-21 20:42:47,15.08839642,0.0001416,53.2159,279.6582,79.008,281.1071,0.00010847,1.439e-05,0.0,0 STARLINK-4732,1 53870U 22114BE  24234.86305111  .00001439  00000-0  10847-3 0  9993,2 53870  53.2159 279.6582 0001416  79.0080 281.1071 15.08839642107582,6917.881,95.438,540.726,538.767,0.0
